[{"OBJECT_NAME":"SHIJIAN-6 02B (SJ-6 02B)","OBJECT_ID":"2006-046B","EPOCH":"2026-03-09T23:09:06.940224","MEAN_MOTION":15.01001333,"ECCENTRICITY":0.00140021,"INCLINATION":97.7065,"RA_OF_ASC_NODE":98.697,"ARG_OF_PERICENTER":42.7506,"MEAN_ANOMALY":317.4805,"EPHEMERIS_TYPE":0,"CLASSIFICATION_TYPE":"U","NORAD_CAT_ID":29506,"ELEMENT_SET_NO":999,"REV_AT_EPOCH":5585,"BSTAR":0.00024683398,"MEAN_MOTION_DOT":3.096e-5,"MEAN_MOTION_DDOT":0},{"OBJECT_NAME":"STARLINK-5660","OBJECT_ID":"2023-013E","EPOCH":"2026-03-09T01:48:47.315232","MEAN_MOTION":15.02536319,"ECCENTRICITY":0.00010805,"INCLINATION":43.0036,"RA_OF_ASC_NODE":303.9656,"ARG_OF_PERICENTER":274.6932,"MEAN_ANOMALY":85.3787,"EPHEMERIS_TYPE":0,"CLASSIFICATION_TYPE":"U","NORAD_CAT_ID":55335,"ELEMENT_SET_NO":999,"REV_AT_EPOCH":17161,"BSTAR":3.6284553e-5,"MEAN_MOTION_DOT":2.87e-6,"MEAN_MOTION_DDOT":0}]
